
# Worst residual: 16.41 km
# MJD 60629.000000 (2024 Nov 15  0:00)
A10VwK1 = A10VgVe = 2022-134ZZZ
1 79966U 22134ZZZ 24320.49919926  .00000000  00000-0  00000-0 0 21836
2 79966 020.0763 139.0179 8091460 093.6397 196.8925 01.36412436    02

# Worst residual: 47.79 km
# MJD 60630.000000 (2024 Nov 16  0:00)
A10VwK1 = A10VgVe = 2022-134ZZZ
1 79966U 22134ZZZ 24321.49919926  .00000000  00000-0  00000-0 0 21837
2 79966 020.0782 138.6925 8089712 094.1605 328.4573 01.36660489    07

# Worst residual: 38.06 km
# MJD 60631.000000 (2024 Nov 17  0:00)
A10VwK1 = A10VgVe = 2022-134ZZZ
1 79966U 22134ZZZ 24322.49919926  .00000000  00000-0  00000-0 0 21838
2 79966 020.0797 138.4495 8086721 094.5677 101.1396 01.37009898    04

# Worst residual: 22.48 km
# MJD 60632.000000 (2024 Nov 18  0:00)
A10VwK1 = A10VgVe = 2022-134ZZZ
1 79966U 22134ZZZ 24323.49919926  .00000000  00000-0  00000-0 0 21839
2 79966 020.0841 138.1797 8085103 095.0085 234.6717 01.37171198    00

# Worst residual: 31.14 km
# MJD 60633.000000 (2024 Nov 19  0:00)
A10VwK1 = A10VgVe = 2022-134ZZZ
1 79966U 22134ZZZ 24324.49919926  .00000000  00000-0  00000-0 0 21830
2 79966 020.0842 137.9253 8083963 095.4502 008.8240 01.37358211    00

# Worst residual: 11.62 km
# MJD 60634.000000 (2024 Nov 20  0:00)
A10VwK1 = A10VgVe = 2022-134ZZZ
1 79966U 22134ZZZ 24325.49919926  .00000000  00000-0  00000-0 0 21831
2 79966 020.0871 137.6787 8082470 095.8584 143.6835 01.37539844    08

# Worst residual: 24.94 km
# MJD 60635.000000 (2024 Nov 21  0:00)
A10VwK1 = A10VgVe = 2022-134ZZZ
1 79966U 22134ZZZ 24326.49919926  .00000000  00000-0  00000-0 0 21832
2 79966 020.0905 137.4068 8082104 096.3151 278.9954 01.37642932    03

# Worst residual: 28.19 km
# MJD 60636.000000 (2024 Nov 22  0:00)
A10VwK1 = A10VgVe = 2022-134ZZZ
1 79966U 22134ZZZ 24327.49919926  .00000000  00000-0  00000-0 0 21833
2 79966 020.0898 137.1479 8080876 096.7517 054.8276 01.37822826    01

# Worst residual: 12.55 km
# MJD 60637.000000 (2024 Nov 23  0:00)
A10VwK1 = A10VgVe = 2022-134ZZZ
1 79966U 22134ZZZ 24328.49919926  .00000000  00000-0  00000-0 0 21834
2 79966 020.0936 136.8951 8079341 097.1727 191.2317 01.37965422    00

# Worst residual: 32.43 km
# MJD 60638.000000 (2024 Nov 24  0:00)
A10VwK1 = A10VgVe = 2022-134ZZZ
1 79966U 22134ZZZ 24329.49919926  .00000000  00000-0  00000-0 0 21835
2 79966 020.0945 136.6157 8078963 097.6443 328.1729 01.38115101    05

# Worst residual: 35.10 km
# MJD 60639.000000 (2024 Nov 25  0:00)
A10VwK1 = A10VgVe = 2022-134ZZZ
1 79966U 22134ZZZ 24330.49919926  .00000000  00000-0  00000-0 0 21837
2 79966 020.0948 136.3804 8076187 098.0541 105.8888 01.38402170    05

# Worst residual: 39.41 km
# MJD 60640.000000 (2024 Nov 26  0:00)
A10VwK1 = A10VgVe = 2022-134ZZZ
1 79966U 22134ZZZ 24331.49919926  .00000000  00000-0  00000-0 0 21838
2 79966 020.0982 136.1021 8074247 098.5078 244.5248 01.38617790    04

# Worst residual: 64.95 km
# MJD 60641.000000 (2024 Nov 27  0:00)
A10VwK1 = A10VgVe = 2022-134ZZZ
1 79966U 22134ZZZ 24332.49919926  .00000000  00000-0  00000-0 0 21839
2 79966 020.1003 135.8489 8070607 098.9682 024.2263 01.39001259    02

# Worst residual: 22.39 km
# MJD 60642.000000 (2024 Nov 28  0:00)
A10VwK1 = A10VgVe = 2022-134ZZZ
1 79966U 22134ZZZ 24333.49919926  .00000000  00000-0  00000-0 0 21830
2 79966 020.1019 135.6201 8066792 099.3508 165.4517 01.39423114    09

# Worst residual: 77.64 km
# MJD 60643.000000 (2024 Nov 29  0:00)
A10VwK1 = A10VgVe = 2022-134ZZZ
1 79966U 22134ZZZ 24334.49919926  .00000000  00000-0  00000-0 0 21831
2 79966 020.1057 135.3389 8064721 099.8308 308.0876 01.39784592    01

# Worst residual: 77.02 km
# MJD 60644.000000 (2024 Nov 30  0:00)
A10VwK1 = A10VgVe = 2022-134ZZZ
1 79966U 22134ZZZ 24335.49919926  .00000000  00000-0  00000-0 0 21832
2 79966 020.1070 135.0930 8058450 100.2545 092.4884 01.40380956    08

# Worst residual: 40.63 km
# MJD 60645.000000 (2024 Dec  1  0:00)
A10VwK1 = A10VgVe = 2022-134ZZZ
1 79966U 22134ZZZ 24336.49919926  .00000000  00000-0  00000-0 0 21833
2 79966 020.1104 134.8254 8055604 100.6938 238.4661 01.40707090    07

# Worst residual: 57.16 km
# MJD 60646.000000 (2024 Dec  2  0:00)
A10VwK1 = A10VgVe = 2022-134ZZZ
1 79966U 22134ZZZ 24337.49919926  .00000000  00000-0  00000-0 0 21834
2 79966 020.1105 134.5673 8052322 101.1530 025.7809 01.41105578    03

# Worst residual: 10.60 km
# MJD 60647.000000 (2024 Dec  3  0:00)
A10VwK1 = A10VgVe = 2022-134ZZZ
1 79966U 22134ZZZ 24338.49919926  .00000000  00000-0  00000-0 0 21835
2 79966 020.1147 134.3043 8049452 101.5770 174.3610 01.41392282    09

# Worst residual: 27.74 km
# MJD 60648.000000 (2024 Dec  4  0:00)
A10VwK1 = A10VgVe = 2022-134ZZZ
1 79966U 22134ZZZ 24339.49919926  .00000000  00000-0  00000-0 0 21836
2 79966 020.1164 134.0446 8048478 102.0349 323.7246 01.41575260    01

# Worst residual: 20.30 km
# MJD 60649.000000 (2024 Dec  5  0:00)
A10VwK1 = A10VgVe = 2022-134ZZZ
1 79966U 22134ZZZ 24340.49919926  .00000000  00000-0  00000-0 0 21838
2 79966 020.1184 133.7775 8046348 102.4733 113.8404 01.41800030    09

# Worst residual: 24.07 km
# MJD 60650.000000 (2024 Dec  6  0:00)
A10VwK1 = A10VgVe = 2022-134ZZZ
1 79966U 22134ZZZ 24341.49919926  .00000000  00000-0  00000-0 0 21839
2 79966 020.1210 133.4909 8045345 102.9450 264.4893 01.41899284    06

# Worst residual: 30.05 km
# MJD 60651.000000 (2024 Dec  7  0:00)
A10VwK1 = A10VgVe = 2022-134ZZZ
1 79966U 22134ZZZ 24342.49919926  .00000000  00000-0  00000-0 0 21830
2 79966 020.1234 133.2382 8043770 103.3823 055.6515 01.42081325    05

# Worst residual: 15.48 km
# MJD 60652.000000 (2024 Dec  8  0:00)
A10VwK1 = A10VgVe = 2022-134ZZZ
1 79966U 22134ZZZ 24343.49919926  .00000000  00000-0  00000-0 0 21831
2 79966 020.1284 132.9613 8042662 103.8312 207.3621 01.42199402    00

# Worst residual: 27.49 km
# MJD 60653.000000 (2024 Dec  9  0:00)
A10VwK1 = A10VgVe = 2022-134ZZZ
1 79966U 22134ZZZ 24344.49919926  .00000000  00000-0  00000-0 0 21832
2 79966 020.1298 132.6922 8041822 104.2933 359.5382 01.42347754    05

# Worst residual: 12.01 km
# MJD 60654.000000 (2024 Dec 10  0:00)
A10VwK1 = A10VgVe = 2022-134ZZZ
1 79966U 22134ZZZ 24345.49919926  .00000000  00000-0  00000-0 0 21833
2 79966 020.1331 132.4308 8039847 104.7260 152.3853 01.42558327    03

# Worst residual: 43.60 km
# MJD 60655.000000 (2024 Dec 11  0:00)
A10VwK1 = A10VgVe = 2022-134ZZZ
1 79966U 22134ZZZ 24346.49919926  .00000000  00000-0  00000-0 0 21834
2 79966 020.1377 132.1370 8039155 105.2160 305.9469 01.42749967    07

# Worst residual: 54.35 km
# MJD 60656.000000 (2024 Dec 12  0:00)
A10VwK1 = A10VgVe = 2022-134ZZZ
1 79966U 22134ZZZ 24347.49919926  .00000000  00000-0  00000-0 0 21835
2 79966 020.1408 131.8638 8035527 105.6702 100.5520 01.43144394    01

# Worst residual: 42.07 km
# MJD 60657.000000 (2024 Dec 13  0:00)
A10VwK1 = A10VgVe = 2022-134ZZZ
1 79966U 22134ZZZ 24348.49919926  .00000000  00000-0  00000-0 0 21836
2 79966 020.1469 131.5660 8033572 106.1501 256.3306 01.43383479    02
